{
"type": "FeatureCollection",
"name": "us_states",
"crs": { "type": "name", "properties": { "name": "urn:ogc:def:crs:ESRI::102003" } },
"features": [
{ "type": "Feature", "properties": { "GEOID": "48", "STATEFP": "48", "state_name": "Texas", "state": "TX" }, "geometry": { "type": "Polygon", "coordinates": [ [ [ -620900.677329867961816, -89117.592867942425073 ], [ -624395.485264424118213, -88854.166309103893582 ], [ -644599.041566940024495, -359039.137504398531746 ], [ -663739.703385708737187, -590265.60433598968666 ], [ -859528.126457003643736, -573520.606804882409051 ], [ -996505.807930919574574, -559219.507232556934468 ], [ -990748.376858458388597, -584225.093385298619978 ], [ -961588.99858694744762, -624024.940889773424715 ], [ -887475.513240227475762, -703142.735707345884293 ], [ -859203.693976760143414, -721998.034363760147244 ], [ -835477.60440630838275, -775627.608327310648747 ], [ -825203.122205815510824, -836243.21623985725455 ], [ -789804.644690610584803, -871940.697514629806392 ], [ -709730.352669520536438, -923029.917833870393224 ], [ -667776.91099938575644, -897344.004217794165015 ], [ -645075.328255499014631, -843777.145221158978529 ], [ -607798.871601323480718, -830826.272475034464151 ], [ -521898.479804212867748, -851635.233823590213433 ], [ -455281.504830297781155, -926007.017455497989431 ], [ -419883.726821901684161, -1021749.967315443791449 ], [ -388190.622668671945576, -1054357.968621632782742 ], [ -380408.107382534537464, -1075546.429723800625652 ], [ -352612.94638941064477, -1094790.19011309905909 ], [ -341855.824813448591158, -1145399.228564147604629 ], [ -312700.829682686366141, -1227103.546790996100754 ], [ -221805.245194931107108, -1270323.308566417079419 ], [ -181252.922657811810495, -1271277.925304741365835 ], [ -143985.801733274536673, -1295495.201226882403716 ], [ -115772.024882920217351, -1281524.207226160215214 ], [ -137593.822160285082646, -1161487.69544104184024 ], [ -128795.167990169415134, -1121151.614668543916196 ], [ -87471.756144202139694, -1055022.71952090645209 ], [ -19077.374659674955183, -1003309.798491968773305 ], [ 60343.035118605374009, -962852.73473649576772 ], [ 136299.521375220909249, -895415.63614558998961 ], [ 188052.209012459614314, -871966.509873120696284 ], [ 209145.082127248169854, -869352.828274241299368 ], [ 200049.193940904398914, -857093.744174231775105 ], [ 221133.517795959749492, -828714.92388319526799 ], [ 217400.172132521751337, -774315.853804638376459 ], [ 235280.481104900885839, -731655.000346451532096 ], [ 234130.998702453827718, -702637.767790822079405 ], [ 204641.313508113235002, -658759.908668545656838 ], [ 184155.243079363426659, -613953.901002698810771 ], [ 181691.061148222564952, -499476.499753502372187 ], [ 180424.711916522588581, -440069.627313821052667 ], [ 139474.719311735796509, -431160.465920357906725 ], [ 106567.300508192085545, -420276.119991539861076 ], [ 70968.836425694622449, -395772.775744196143933 ], [ -13933.496816251708879, -410578.055561443674378 ], [ -33427.724537868518382, -425913.129688112938311 ], [ -83061.068854456418194, -397312.687670816725586 ], [ -110817.513043520521023, -412357.953459957789164 ], [ -153300.279739652498392, -391425.83045097469585 ], [ -171398.593544881499838, -406957.158135402947664 ], [ -192222.344312962173717, -378029.968566105992068 ], [ -250531.019085010077106, -373560.886854352778755 ], [ -291599.85303175955778, -362961.640837982238736 ], [ -298779.946948912751395, -343444.578162304998841 ], [ -337201.053808478463907, -342657.045133260719012 ], [ -364065.049378592811991, -321483.14837916410761 ], [ -354932.67407903901767, -104609.53215105527488 ], [ -620900.677329867961816, -89117.592867942425073 ] ] ] } },
{ "type": "Feature", "properties": { "GEOID": "06", "STATEFP": "06", "state_name": "California", "state": "CA" }, "geometry": { "type": "Polygon", "coordinates": [ [ [ -2286974.992203017696738, 845925.228214008035138 ], [ -2293487.361668739002198, 782529.646067736670375 ], [ -2312555.849414854776114, 735636.422747306525707 ], [ -2353991.676489984150976, 683770.191160709015094 ], [ -2356113.742898011114448, 663664.460193084320053 ], [ -2328727.302483309991658, 605079.168078587506898 ], [ -2341826.812858160119504, 553872.383699743077159 ], [ -2346862.844912319909781, 503002.006380027334671 ], [ -2308039.17133468715474, 419473.390408040722832 ], [ -2310993.323524575214833, 389382.664663829025812 ], [ -2257175.529892954975367, 331503.178477908077184 ], [ -2291419.727690877392888, 324164.237192509288434 ], [ -2291616.677641718182713, 285281.521756968519185 ], [ -2251538.034990633372217, 230679.984552056412213 ], [ -2273792.661833164282143, 209858.819998686929466 ], [ -2275234.726369723677635, 177699.573859992262442 ], [ -2261469.61642996314913, 157944.556578001182061 ], [ -2220712.91419266583398, 40318.099565616234031 ], [ -2201518.130168298259377, 20829.818813190340734 ], [ -2217958.209374784491956, -37627.872429702474619 ], [ -2204671.809019463602453, -56630.655077136623731 ], [ -2131724.714838427957147, -78496.981314661650686 ], [ -2095657.362387204077095, -125170.818579541926738 ], [ -2044908.707051740959287, -145309.639511604764266 ], [ -2041563.846920988289639, -179629.426011393021327 ], [ -2017500.415889009600505, -183385.483399046846898 ], [ -1968063.585545380832627, -250511.334080608765362 ], [ -1959543.365221535088494, -281793.204075520392507 ], [ -1957186.629620626335964, -337031.516304281482007 ], [ -1733395.168170296354219, -363595.879029835457914 ], [ -1707756.246788604883477, -354302.323581751901656 ], [ -1721979.028344804421067, -329551.591843567148317 ], [ -1717911.928413812769577, -291813.809901655011345 ], [ -1697545.530184944858775, -275861.825579066353384 ], [ -1690338.522770234383643, -234436.467411596386228 ], [ -1647655.542879869928584, -205075.854668477724772 ], [ -1678714.176730090286583, -129093.40623327405774 ], [ -1675823.607426343485713, -114957.058111892241868 ], [ -2037521.771388754947111, 426744.596567129599862 ], [ -1953555.911308415932581, 751504.888281971565448 ], [ -2036006.833563746418804, 773120.052308889222331 ], [ -2286974.992203017696738, 845925.228214008035138 ] ] ] } },
{ "type": "Feature", "properties": { "GEOID": "21", "STATEFP": "21", "state_name": "Kentucky", "state": "KY" }, "geometry": { "type": "Polygon", "coordinates": [ [ [ 605024.544688491965644, -36171.571245026330871 ], [ 604732.886017877957784, -72097.172821940810536 ], [ 572967.421534735709429, -92795.194382523477543 ], [ 704698.298441061633639, -82550.500750382256228 ], [ 720865.001622351468541, -66203.475702910654945 ], [ 839332.493280968861654, -53017.506826756776718 ], [ 895522.702230403199792, -50440.963563245684782 ], [ 1089283.317819331306964, -30021.958957261656906 ], [ 1134487.244189056567848, -7916.07217243193918 ], [ 1164671.327814994845539, 37973.002397545475105 ], [ 1194539.621913462178782, 59591.511210908080102 ], [ 1223687.032834456302226, 94739.547884409796097 ], [ 1192909.39013272151351, 107023.773754378984449 ], [ 1157316.593591401120648, 152719.300527511601103 ], [ 1155588.545856574783102, 184961.879206481506117 ], [ 1125126.638873822055757, 218518.572835119033698 ], [ 1093581.414799384772778, 196463.444987008319004 ], [ 1070965.156715873396024, 205081.137076446029823 ], [ 1011457.994487527641468, 209153.541348353290232 ], [ 985895.325150631251745, 241693.133433469105512 ], [ 955652.851750484434888, 236223.298787079518661 ], [ 961470.34614047803916, 211713.707157092751004 ], [ 929726.694716990576126, 186058.186153009446571 ], [ 880716.763767124852166, 134989.333296870579943 ], [ 874581.136840520426631, 105668.029194076298154 ], [ 838733.728293094667606, 115309.345068154434557 ], [ 806882.620714155724272, 83424.161790132158785 ], [ 767716.482972862198949, 73910.724972101626918 ], [ 745967.041779691702686, 83550.409554782410851 ], [ 694484.922745674499311, 62681.314125958080695 ], [ 694418.474585672025569, 27654.630888102161407 ], [ 659963.726506855222397, 15028.825946573873807 ], [ 662011.601772995665669, -22165.901450484027009 ], [ 620671.938321273657493, -7434.87666044739035 ], [ 605024.544688491965644, -36171.571245026330871 ] ] ] } },
{ "type": "Feature", "properties": { "GEOID": "13", "STATEFP": "13", "state_name": "Georgia", "state": "GA" }, "geometry": { "type": "Polygon", "coordinates": [ [ [ 939223.081733438768424, -230281.864205016929191 ], [ 1004025.058314812951721, -461772.821847424667794 ], [ 1038838.108934806426987, -524867.956431274767965 ], [ 1024929.335047591244802, -540782.247922617825679 ], [ 1020950.092774561606348, -574522.701024779235013 ], [ 1034080.568867300753482, -606029.115342739154585 ], [ 1032473.495038561173715, -646346.467956021428108 ], [ 1044769.375856865546666, -665724.651652847533114 ], [ 1061559.365367351099849, -696124.978976563666947 ], [ 1314581.535711032571271, -679255.424730171682313 ], [ 1336354.956791321979836, -646492.91174087615218 ], [ 1385431.216376788215712, -652283.802465930581093 ], [ 1382328.421174288960174, -605996.598410692065954 ], [ 1390069.478711472591385, -595698.774411598569714 ], [ 1397466.511361787095666, -536343.308003724785522 ], [ 1414807.679943527793512, -498403.230777104909066 ], [ 1392292.193165776552632, -493117.589104440296069 ], [ 1378645.970990299247205, -455557.753140520711895 ], [ 1357561.417692118091509, -442988.245118529710453 ], [ 1340939.814242891501635, -399321.965994123776909 ], [ 1315432.778706582030281, -387804.586293429776561 ], [ 1294609.830194135429338, -355773.464714584115427 ], [ 1229409.79330889089033, -310816.875800724723376 ], [ 1192508.446058763191104, -256612.661236410727724 ], [ 1147403.897711589932442, -239011.19562104990473 ], [ 1163307.07767597748898, -200888.354655875446042 ], [ 1054571.925879784161225, -216405.369152903847862 ], [ 939223.081733438768424, -230281.864205016929191 ] ] ] } },
{ "type": "Feature", "properties": { "GEOID": "55", "STATEFP": "55", "state_name": "Wisconsin", "state": "WI" }, "geometry": { "type": "Polygon", "coordinates": [ [ [ 305734.599450481473468, 1034817.850634446367621 ], [ 284686.71194209571695, 1029173.343676919816062 ], [ 287090.889945129107218, 963926.971134168794379 ], [ 254748.719007267325651, 941570.241140667581931 ], [ 243827.554484146327013, 922460.474449831992388 ], [ 262271.127924702246673, 892268.19828709657304 ], [ 253851.661680558900116, 874956.25154495658353 ], [ 252381.067110080970451, 817393.706362476455979 ], [ 273367.729731881758198, 796883.063180493772961 ], [ 320759.579246388049796, 774713.248378305928782 ], [ 327021.297076757706236, 760367.500114416121505 ], [ 364223.646614723314997, 736439.704767344868742 ], [ 381189.027429048379418, 711759.267738550319336 ], [ 384820.643568577303085, 681494.985483399475925 ], [ 399098.637593971623573, 654661.063444265397266 ], [ 394636.987602614739444, 615262.884602519334294 ], [ 437276.121590016176924, 573316.410101296729408 ], [ 668966.89435963856522, 588014.177818471100181 ], [ 668884.334427627851255, 620875.778178985463455 ], [ 653976.452484208159149, 678200.176259850850329 ], [ 665076.869583436870016, 720826.076848574448377 ], [ 660810.770245595485903, 742199.261671387241222 ], [ 686032.290085826767609, 879538.339544073562138 ], [ 650312.937773428508081, 826936.586851062951609 ], [ 633121.014892787788995, 834507.57187140150927 ], [ 660413.02317296678666, 878774.156055081752129 ], [ 636554.45739032200072, 905467.976227625622414 ], [ 639910.654014991247095, 941555.531839291215874 ], [ 611655.892294564982876, 966827.333544843248092 ], [ 556891.016118653584272, 973543.289421896799468 ], [ 534319.597610183875076, 984873.6712790671736 ], [ 453493.945264410984237, 1001477.278128686943091 ], [ 429071.487391512375325, 1025460.153863267973065 ], [ 369945.653010826616082, 1053129.215597248636186 ], [ 305734.599450481473468, 1034817.850634446367621 ] ] ] } },
{ "type": "Feature", "properties": { "GEOID": "41", "STATEFP": "41", "state_name": "Oregon", "state": "OR" }, "geometry": { "type": "Polygon", "coordinates": [ [ [ -2098954.701296088285744, 1285187.318990991683677 ], [ -2133185.280283088330179, 1281875.315433707553893 ], [ -2166499.707457114942372, 1176324.824932565912604 ], [ -2219787.978498815093189, 1048783.352165759308264 ], [ -2237713.048876121174544, 1012994.676035363809206 ], [ -2285910.272041148971766, 944107.873220133944415 ], [ -2281102.99209939269349, 921260.19655331899412 ], [ -2294350.770369056146592, 877683.91976482688915 ], [ -2286974.992203017696738, 845925.228214008035138 ], [ -2036006.833563746418804, 773120.052308889222331 ], [ -1953555.911308415932581, 751504.888281971565448 ], [ -1715671.062786517897621, 694688.901709067868069 ], [ -1670749.244783757487312, 893443.952472072443925 ], [ -1652731.124579422874376, 927174.353300364804454 ], [ -1673881.553142475662753, 958983.007769079995342 ], [ -1629116.558495931793004, 1010320.350498427636921 ], [ -1584307.455557101638988, 1078643.096746867289767 ], [ -1609574.160280317999423, 1127410.06855346634984 ], [ -1765862.564606610685587, 1164673.386136821703985 ], [ -1778120.77308964706026, 1160046.028374589979649 ], [ -1893611.068756689084694, 1168308.096766420872882 ], [ -1933614.027287377044559, 1167663.953848735196516 ], [ -1986486.749398863175884, 1188951.994282610481605 ], [ -2025264.755162066314369, 1181103.234722143039107 ], [ -2059494.872246138053015, 1206643.106971144443378 ], [ -2053777.166103939525783, 1237421.625973164336756 ], [ -2069268.277745420113206, 1267864.476133234798908 ], [ -2098954.701296088285744, 1285187.318990991683677 ] ] ] } },
{ "type": "Feature", "properties": { "GEOID": "29", "STATEFP": "29", "state_name": "Missouri", "state": "MO" }, "geometry": { "type": "Polygon", "coordinates": [ [ [ 19670.043497152415512, 345775.624749999784399 ], [ 29170.61145431307159, 316385.640309983107727 ], [ 58533.804966509116639, 280404.103660810447764 ], [ 96772.648612314806087, 252705.65525872859871 ], [ 75478.283093707650551, 230559.122791941830656 ], [ 102696.786224985553417, 191862.971458251326112 ], [ 119301.041177089355187, 181712.947730969724944 ], [ 121838.567387793998932, -55266.841670380483265 ], [ 122656.34724469880166, -111221.391880965835298 ], [ 255038.708342947298661, -108431.614889820164535 ], [ 518548.948221247759648, -96614.489970863680355 ], [ 527856.563368804054335, -117619.008106450724881 ], [ 502828.193104419508018, -153615.546388157323236 ], [ 559470.710253209457733, -149526.956455109175295 ], [ 575600.037295543355867, -109810.009116045446717 ], [ 572967.421534735709429, -92795.194382523477543 ], [ 604732.886017877957784, -72097.172821940810536 ], [ 605024.544688491965644, -36171.571245026330871 ], [ 584624.512516405782662, -30822.147774672092055 ], [ 570533.439687080332078, -101.087845746241697 ], [ 565350.324971528607421, 41295.912362837516412 ], [ 501911.206182749476284, 81886.702902634409838 ], [ 487054.740873026428744, 106706.476235779438866 ], [ 505810.222797669062857, 166904.336978168605128 ], [ 458678.322491995000746, 172084.272741274384316 ], [ 450357.942675155471079, 209294.799883582192706 ], [ 393317.146177211252507, 259415.792416198411956 ], [ 378747.415194476954639, 308232.856852719502058 ], [ 385428.625552570621949, 331860.876477253623307 ], [ 358203.468254472827539, 356986.3313551354222 ], [ 278020.721721144334879, 351113.771948488603812 ], [ 123075.795525811918196, 345080.103772266185842 ], [ 19670.043497152415512, 345775.624749999784399 ] ] ] } },
{ "type": "Feature", "properties": { "GEOID": "51", "STATEFP": "51", "state_name": "Virginia", "state": "VA" }, "geometry": { "type": "MultiPolygon", "coordinates": [ [ [ [ 1756068.594414648599923, 239079.634095753746806 ], [ 1742057.602737534791231, 191689.637366628769087 ], [ 1741441.756463515106589, 160069.025775313843042 ], [ 1761396.652631565695629, 153389.136727506585885 ], [ 1770937.903888237662613, 219071.029634008882567 ], [ 1790551.26067209802568, 255420.960317409364507 ], [ 1756068.594414648599923, 239079.634095753746806 ] ] ], [ [ [ 1223687.032834456302226, 94739.547884409796097 ], [ 1194539.621913462178782, 59591.511210908080102 ], [ 1164671.327814994845539, 37973.002397545475105 ], [ 1134487.244189056567848, -7916.07217243193918 ], [ 1089283.317819331306964, -30021.958957261656906 ], [ 1264830.529832528205588, -6684.357722357505736 ], [ 1386651.863961013033986, 7715.620909187244251 ], [ 1542651.224982409970835, 34910.311457482370315 ], [ 1772269.084679317427799, 82072.379692711998359 ], [ 1752372.703644012100995, 120349.896899173603742 ], [ 1727934.103020198177546, 120032.888064734914224 ], [ 1711061.331120426766574, 146328.293322150566382 ], [ 1718871.341453244443983, 170497.08897006243933 ], [ 1706385.907185724005103, 196397.023543362010969 ], [ 1709236.10678103310056, 221988.163468437473057 ], [ 1671180.676338284509256, 243740.421464664192172 ], [ 1640095.108380508609116, 244861.950132521043997 ], [ 1603920.24907107767649, 266519.80243790242821 ], [ 1616515.930518583161756, 288231.958715729007963 ], [ 1620745.012568057980388, 306994.387272099789698 ], [ 1610776.9640560047701, 321299.6873270853539 ], [ 1578818.476191195659339, 331143.84811744093895 ], [ 1551959.846590300090611, 353864.962265957496129 ], [ 1546875.312687808182091, 331301.149426628835499 ], [ 1496311.413750104373321, 359727.840431826829445 ], [ 1497052.573661195114255, 324791.838920921785757 ], [ 1472191.695570800453424, 290016.993623909715097 ], [ 1454137.901201897067949, 280615.943973551737145 ], [ 1437154.041716819396242, 229332.20544656724087 ], [ 1403867.167065507499501, 243408.738902036013315 ], [ 1398150.032575999153778, 206221.743160582525888 ], [ 1365899.700584605103359, 133731.728752986789914 ], [ 1368667.582164590945467, 117465.211897230299655 ], [ 1318532.221671453909948, 83115.864050241434597 ], [ 1264586.133628764888272, 63383.379525074116827 ], [ 1238130.865095215151086, 68278.185970956925303 ], [ 1223687.032834456302226, 94739.547884409796097 ] ] ] ] } },
{ "type": "Feature", "properties": { "GEOID": "47", "STATEFP": "47", "state_name": "Tennessee", "state": "TN" }, "geometry": { "type": "Polygon", "coordinates": [ [ [ 559470.710253209457733, -149526.956455109175295 ], [ 561745.830136447912082, -170835.820383441838203 ], [ 541717.088819052209146, -184914.70022483804496 ], [ 514827.369624248589389, -265048.391764802276157 ], [ 705275.750316638383083, -251514.623528926633298 ], [ 939223.081733438768424, -230281.864205016929191 ], [ 1054571.925879784161225, -216405.369152903847862 ], [ 1054766.920164168113843, -189527.588096211839002 ], [ 1095743.473871742375195, -146481.645017068833113 ], [ 1120089.640925905434415, -143198.486592048371676 ], [ 1163027.462289835559204, -112585.924658291914966 ], [ 1177429.644462948897853, -86855.569944406714058 ], [ 1224984.683836043113843, -61215.852329182285757 ], [ 1241651.755084799602628, -62690.982997819257434 ], [ 1264830.529832528205588, -6684.357722357505736 ], [ 1089283.317819331306964, -30021.958957261656906 ], [ 895522.702230403199792, -50440.963563245684782 ], [ 839332.493280968861654, -53017.506826756776718 ], [ 720865.001622351468541, -66203.475702910654945 ], [ 704698.298441061633639, -82550.500750382256228 ], [ 572967.421534735709429, -92795.194382523477543 ], [ 575600.037295543355867, -109810.009116045446717 ], [ 559470.710253209457733, -149526.956455109175295 ] ] ] } },
{ "type": "Feature", "properties": { "GEOID": "22", "STATEFP": "22", "state_name": "Louisiana", "state": "LA" }, "geometry": { "type": "Polygon", "coordinates": [ [ [ 181691.061148222564952, -499476.499753502372187 ], [ 184155.243079363426659, -613953.901002698810771 ], [ 204641.313508113235002, -658759.908668545656838 ], [ 234130.998702453827718, -702637.767790822079405 ], [ 235280.481104900885839, -731655.000346451532096 ], [ 217400.172132521751337, -774315.853804638376459 ], [ 221133.517795959749492, -828714.92388319526799 ], [ 200049.193940904398914, -857093.744174231775105 ], [ 209145.082127248169854, -869352.828274241299368 ], [ 272811.556483659311198, -858821.947404903476126 ], [ 356275.985159464296885, -882481.83786383329425 ], [ 381107.343224082957022, -875476.987577465479262 ], [ 446437.630120068613905, -882365.259783770306967 ], [ 458997.645616290566977, -909411.097719571203925 ], [ 500058.076630301133264, -928541.493578580557369 ], [ 562564.907475167652592, -921732.408506130566821 ], [ 597938.565156880998984, -893566.270030715852045 ], [ 667513.943569320254028, -920897.782153191627003 ], [ 660003.225266751716845, -886486.202697702799924 ], [ 632212.348991361213848, -881571.184719230397604 ], [ 655700.545514062047005, -806798.12699242553208 ], [ 630858.587036152603105, -808879.443490039207973 ], [ 607526.090523978695273, -831243.423591126338579 ], [ 592682.761257060104981, -816168.902668084250763 ], [ 622277.348533617681824, -796140.084017546148971 ], [ 588420.612077545956708, -737560.61898907693103 ], [ 596715.624707926996052, -706351.778558294405229 ], [ 415280.318391554174013, -716850.156644163071178 ], [ 437320.245879377820529, -626676.076223340234719 ], [ 466147.869201115972828, -591564.122783958213404 ], [ 448705.351007641176693, -491619.727083745703567 ], [ 181691.061148222564952, -499476.499753502372187 ] ] ] } },
{ "type": "Feature", "properties": { "GEOID": "36", "STATEFP": "36", "state_name": "New York", "state": "NY" }, "geometry": { "type": "Polygon", "coordinates": [ [ [ 1324220.593200334813446, 647717.351830248488113 ], [ 1329427.092347350437194, 617852.10694606974721 ], [ 1503468.571025150362402, 649955.608535538543947 ], [ 1686348.412328303558752, 687336.987693245639093 ], [ 1715329.733699491713196, 666250.193913905415684 ], [ 1727332.611452321289107, 639574.649576188647188 ], [ 1754030.336194963427261, 629662.445952958078124 ], [ 1828096.051011167932302, 605474.803558283485472 ], [ 1810877.370178143261001, 544512.197115115588531 ], [ 1825073.121344145620242, 558774.487996736192144 ], [ 1893458.118353237630799, 579013.488549146335572 ], [ 1986354.599633485544473, 645723.055548695265315 ], [ 1956676.21067522559315, 645238.136630460969172 ], [ 1892336.907156152883545, 618064.075325877056457 ], [ 1847619.409446214092895, 608741.318600072292611 ], [ 1848122.912794108968228, 644585.458888140856288 ], [ 1833457.48725817608647, 727866.394931254093535 ], [ 1832774.098036558367312, 807810.76808334060479 ], [ 1813685.182589681586251, 893856.006684040301479 ], [ 1785131.515932850306854, 945198.562474170001224 ], [ 1785752.143317518057302, 990997.976847838959657 ], [ 1773617.258544458309188, 1008575.944528977153823 ], [ 1766936.601937642320991, 1051771.822203274816275 ], [ 1652520.695164935663342, 1025353.425250302418135 ], [ 1623975.962947806343436, 1001044.834798028343357 ], [ 1582328.669814822496846, 933998.316497390042059 ], [ 1559455.46533437888138, 912580.170185790047981 ], [ 1556008.179137291619554, 880173.633664260269143 ], [ 1573125.867172019556165, 869916.601652206387371 ], [ 1564813.577545878477395, 835919.406468467554078 ], [ 1528246.366490877931938, 799819.462132274755277 ], [ 1481567.100043362472206, 786511.589651050511748 ], [ 1462729.417041004402563, 794820.830600920133293 ], [ 1399752.134099551709369, 786078.588612832711078 ], [ 1360370.462320331251249, 766720.912573358975351 ], [ 1363704.986120920162648, 746373.667848474346101 ], [ 1387223.551202984293923, 718151.889761647558771 ], [ 1368719.722109852591529, 688989.39132666203659 ], [ 1324220.593200334813446, 647717.351830248488113 ] ] ] } },
{ "type": "Feature", "properties": { "GEOID": "16", "STATEFP": "16", "state_name": "Idaho", "state": "ID" }, "geometry": { "type": "Polygon", "coordinates": [ [ [ -1609574.160280317999423, 1127410.06855346634984 ], [ -1584307.455557101638988, 1078643.096746867289767 ], [ -1629116.558495931793004, 1010320.350498427636921 ], [ -1673881.553142475662753, 958983.007769079995342 ], [ -1652731.124579422874376, 927174.353300364804454 ], [ -1670749.244783757487312, 893443.952472072443925 ], [ -1715671.062786517897621, 694688.901709067868069 ], [ -1475457.777441720943898, 643901.067138893413357 ], [ -1232641.649569240631536, 602088.391342560062185 ], [ -1189292.121341378893703, 874737.558998386957683 ], [ -1206336.396203896962106, 905734.070164786768146 ], [ -1228068.776046272367239, 890194.527062902110629 ], [ -1342507.076999079668894, 900559.638647305662744 ], [ -1346380.658551490399987, 934431.772898380761035 ], [ -1367415.142560987034813, 947111.427994897589087 ], [ -1365308.730870350962505, 971243.547726876451634 ], [ -1381751.806732517899945, 1004425.673646092996933 ], [ -1392074.927824730984867, 1048853.155621917685494 ], [ -1420286.966390331508592, 1029401.069454113021493 ], [ -1436021.816758844768628, 1041386.471202665241435 ], [ -1423912.160634973784909, 1092325.28548388951458 ], [ -1398670.001508970512077, 1157053.705228416481987 ], [ -1415808.138694606488571, 1160140.625865756301209 ], [ -1440735.694311884464696, 1190361.749844855163246 ], [ -1460844.172380517004058, 1238271.708743072114885 ], [ -1485729.552497113123536, 1261732.679293158696964 ], [ -1480379.97446097410284, 1292085.094081619055942 ], [ -1497434.665593163110316, 1329912.760548128979281 ], [ -1474367.320497851353139, 1437639.368676194222644 ], [ -1545551.853139424230903, 1453075.714360742364079 ], [ -1607341.328814934473485, 1181061.128806566353887 ], [ -1609574.160280317999423, 1127410.06855346634984 ] ] ] } },
{ "type": "Feature", "properties": { "GEOID": "12", "STATEFP": "12", "state_name": "Florida", "state": "FL" }, "geometry": { "type": "Polygon", "coordinates": [ [ [ 1044769.375856865546666, -665724.651652847533114 ], [ 960530.047018348355778, -675925.390404490521178 ], [ 798880.875382047146559, -691272.434810567996465 ], [ 821147.303104894584976, -727249.120425792294554 ], [ 813627.855086893541738, -769949.446889335289598 ], [ 897031.100623142789118, -749170.132488540373743 ], [ 958898.890936800162308, -756855.980377425905317 ], [ 1021980.522874062415212, -789045.798579821013846 ], [ 1028298.173674302757718, -817486.056768064852804 ], [ 1058798.268413479905576, -822128.251958121079952 ], [ 1102009.54464405355975, -792090.981432268512435 ], [ 1125034.15681603224948, -761661.02722695551347 ], [ 1146089.41183677688241, -754085.922340285498649 ], [ 1185355.980804558843374, -769506.634704701718874 ], [ 1243469.483505525626242, -832029.72080779063981 ], [ 1279712.808893819805235, -848445.351288534933701 ], [ 1295706.707159095210955, -867811.088902125251479 ], [ 1304525.486262385500595, -913621.140750301186927 ], [ 1290340.540934853954241, -950240.179849073989317 ], [ 1296491.412248195149004, -985043.688524408382364 ], [ 1318063.292320131091401, -1028482.569463796447963 ], [ 1370871.42113260529004, -1096625.401722855400294 ], [ 1383664.684137326898053, -1125946.712887181900442 ], [ 1409863.284639604389668, -1126474.611757613485679 ], [ 1438101.509388501988724, -1181042.076001333072782 ], [ 1474612.241976626915857, -1189931.827362783486024 ], [ 1504634.883515845052898, -1226209.326580989640206 ], [ 1516302.361228082561865, -1256388.830497257644311 ], [ 1542109.188226108904928, -1244810.561891705496237 ], [ 1588379.08846125099808, -1240879.323166405083612 ], [ 1585796.710036210948601, -1190204.505767211550847 ], [ 1601221.148201253265142, -1164820.9124987765681 ], [ 1588463.223428662400693, -1050949.529261706396937 ], [ 1539292.281185992294922, -960763.018359272624366 ], [ 1517754.633194051217288, -929770.62785631720908 ], [ 1504431.456092043314129, -870479.140619301120751 ], [ 1457846.085769108962268, -816317.446945424890146 ], [ 1418996.652683003572747, -751007.009156812680885 ], [ 1385431.216376788215712, -652283.802465930581093 ], [ 1336354.956791321979836, -646492.91174087615218 ], [ 1314581.535711032571271, -679255.424730171682313 ], [ 1061559.365367351099849, -696124.978976563666947 ], [ 1044769.375856865546666, -665724.651652847533114 ] ] ] } },
{ "type": "Feature", "properties": { "GEOID": "17", "STATEFP": "17", "state_name": "Illinois", "state": "IL" }, "geometry": { "type": "Polygon", "coordinates": [ [ [ 385428.625552570621949, 331860.876477253623307 ], [ 378747.415194476954639, 308232.856852719502058 ], [ 393317.146177211252507, 259415.792416198411956 ], [ 450357.942675155471079, 209294.799883582192706 ], [ 458678.322491995000746, 172084.272741274384316 ], [ 505810.222797669062857, 166904.336978168605128 ], [ 487054.740873026428744, 106706.476235779438866 ], [ 501911.206182749476284, 81886.702902634409838 ], [ 565350.324971528607421, 41295.912362837516412 ], [ 570533.439687080332078, -101.087845746241697 ], [ 584624.512516405782662, -30822.147774672092055 ], [ 605024.544688491965644, -36171.571245026330871 ], [ 620671.938321273657493, -7434.87666044739035 ], [ 662011.601772995665669, -22165.901450484027009 ], [ 659963.726506855222397, 15028.825946573873807 ], [ 694418.474585672025569, 27654.630888102161407 ], [ 694484.922745674499311, 62681.314125958080695 ], [ 692063.735675283242017, 88514.809420531004434 ], [ 730859.222654937650077, 173684.939021065889392 ], [ 716624.308691836893559, 211130.436202348966617 ], [ 722169.602351913461462, 239311.984120418172097 ], [ 699267.546960276784375, 502698.658691707882099 ], [ 668002.845154968206771, 566563.962913720170036 ], [ 668966.89435963856522, 588014.177818471100181 ], [ 437276.121590016176924, 573316.410101296729408 ], [ 479306.812486462702509, 530753.350993229658343 ], [ 479724.78130949975457, 497783.915874292608351 ], [ 468063.766733306110837, 473161.863239988451824 ], [ 412231.731752951454837, 450415.008370101975743 ], [ 406073.497905333701055, 430639.161581273016054 ], [ 421280.799132017360535, 398250.004945858672727 ], [ 408839.832785899983719, 366057.160017889575101 ], [ 390838.252983293263242, 358503.916505809116643 ], [ 385428.625552570621949, 331860.876477253623307 ] ] ] } },
{ "type": "Feature", "properties": { "GEOID": "30", "STATEFP": "30", "state_name": "Montana", "state": "MT" }, "geometry": { "type": "Polygon", "coordinates": [ [ [ -1474367.320497851353139, 1437639.368676194222644 ], [ -1497434.665593163110316, 1329912.760548128979281 ], [ -1480379.97446097410284, 1292085.094081619055942 ], [ -1485729.552497113123536, 1261732.679293158696964 ], [ -1460844.172380517004058, 1238271.708743072114885 ], [ -1440735.694311884464696, 1190361.749844855163246 ], [ -1415808.138694606488571, 1160140.625865756301209 ], [ -1398670.001508970512077, 1157053.705228416481987 ], [ -1423912.160634973784909, 1092325.28548388951458 ], [ -1436021.816758844768628, 1041386.471202665241435 ], [ -1420286.966390331508592, 1029401.069454113021493 ], [ -1392074.927824730984867, 1048853.155621917685494 ], [ -1381751.806732517899945, 1004425.673646092996933 ], [ -1365308.730870350962505, 971243.547726876451634 ], [ -1367415.142560987034813, 947111.427994897589087 ], [ -1346380.658551490399987, 934431.772898380761035 ], [ -1342507.076999079668894, 900559.638647305662744 ], [ -1228068.776046272367239, 890194.527062902110629 ], [ -1206336.396203896962106, 905734.070164786768146 ], [ -1189292.121341378893703, 874737.558998386957683 ], [ -1179668.699324775487185, 932653.600429271231405 ], [ -981511.521241786773317, 903547.370398710016161 ], [ -806691.702347415499389, 881846.919726841966622 ], [ -633753.01204416109249, 865532.074731860775501 ], [ -623882.83017565717455, 970427.8529848420294 ], [ -595594.383279208093882, 1306659.031157439108938 ], [ -743235.454858423909172, 1320687.042353126453236 ], [ -960192.117610048386268, 1347132.303599949227646 ], [ -1143375.830436041112989, 1374557.244791872333735 ], [ -1303306.834634937113151, 1402850.183197275502607 ], [ -1474367.320497851353139, 1437639.368676194222644 ] ] ] } },
{ "type": "Feature", "properties": { "GEOID": "27", "STATEFP": "27", "state_name": "Minnesota", "state": "MN" }, "geometry": { "type": "Polygon", "coordinates": [ [ [ -91052.171681408537552, 1282100.079023656900972 ], [ -81916.900948952330509, 1245410.855834093643352 ], [ -86060.53999994766491, 1190476.690090196905658 ], [ -64688.358974025817588, 1124433.153331813169643 ], [ -60735.609448844566941, 1020951.16143541620113 ], [ -46400.367155633815855, 985672.998157871654257 ], [ -43768.499030083694379, 943015.802804834558628 ], [ -64421.331495820173586, 911950.466833752347156 ], [ -35882.16389153223281, 873238.519391217734665 ], [ -36488.176830339289154, 671879.558190344832838 ], [ 92208.101474299357506, 672366.487269934499636 ], [ 251906.367523643129971, 675846.943806987721473 ], [ 384820.643568577303085, 681494.985483399475925 ], [ 381189.027429048379418, 711759.267738550319336 ], [ 364223.646614723314997, 736439.704767344868742 ], [ 327021.297076757706236, 760367.500114416121505 ], [ 320759.579246388049796, 774713.248378305928782 ], [ 273367.729731881758198, 796883.063180493772961 ], [ 252381.067110080970451, 817393.706362476455979 ], [ 253851.661680558900116, 874956.25154495658353 ], [ 262271.127924702246673, 892268.19828709657304 ], [ 243827.554484146327013, 922460.474449831992388 ], [ 254748.719007267325651, 941570.241140667581931 ], [ 287090.889945129107218, 963926.971134168794379 ], [ 284686.71194209571695, 1029173.343676919816062 ], [ 305734.599450481473468, 1034817.850634446367621 ], [ 301698.384119420719799, 1045464.254440037184395 ], [ 346253.914173308585305, 1084577.755200500832871 ], [ 388588.894143938552588, 1132967.913111797533929 ], [ 454285.101508674502838, 1167087.106261632405221 ], [ 440180.138382388802711, 1197323.509313455084339 ], [ 397724.140913311333861, 1193046.991439226316288 ], [ 386345.240256769582629, 1208707.669611991615966 ], [ 335005.401470057317056, 1185107.481333697214723 ], [ 226862.903221720247529, 1244564.237972648115829 ], [ 188933.494419308553915, 1234003.642712424509227 ], [ 115632.850529474497307, 1248628.5315753784962 ], [ 97049.342313094442943, 1258955.528776465915143 ], [ 87261.320417998416815, 1317210.955011094221845 ], [ 62351.703784744961013, 1323895.001340500311926 ], [ 62699.170232615069835, 1281594.522284382488579 ], [ -91052.171681408537552, 1282100.079023656900972 ] ] ] } },
{ "type": "Feature", "properties": { "GEOID": "24", "STATEFP": "24", "state_name": "Maryland", "state": "MD" }, "geometry": { "type": "Polygon", "coordinates": [ [ [ 1396620.832396344514564, 370658.492527920869179 ], [ 1405747.161483296891674, 313648.718016775033902 ], [ 1433782.487723865313455, 348959.30563129048096 ], [ 1514185.18533903057687, 386511.922336641175207 ], [ 1537046.311009721830487, 381333.776326892781071 ], [ 1551959.846590300090611, 353864.962265957496129 ], [ 1578818.476191195659339, 331143.84811744093895 ], [ 1610776.9640560047701, 321299.6873270853539 ], [ 1629411.661268215160817, 320327.963997662009206 ], [ 1620745.012568057980388, 306994.387272099789698 ], [ 1616515.930518583161756, 288231.958715729007963 ], [ 1647195.269709512591362, 252583.75499537421274 ], [ 1730611.406547490740195, 266905.845312758872751 ], [ 1736006.914389135316014, 237466.173331571306335 ], [ 1756068.594414648599923, 239079.634095753746806 ], [ 1790551.26067209802568, 255420.960317409364507 ], [ 1796563.903719043591991, 305460.081088456790894 ], [ 1741920.557803520699963, 294426.403467483236454 ], [ 1704048.269873092183843, 430955.018433067190927 ], [ 1604113.901169204851612, 409791.064253279357217 ], [ 1396620.832396344514564, 370658.492527920869179 ] ] ] } },
{ "type": "Feature", "properties": { "GEOID": "19", "STATEFP": "19", "state_name": "Iowa", "state": "IA" }, "geometry": { "type": "Polygon", "coordinates": [ [ [ -36488.176830339289154, 671879.558190344832838 ], [ -35566.688423633371713, 628722.85838739213068 ], [ -50588.826465799960715, 591417.963500921847299 ], [ -36392.927744855645869, 559077.914145671995357 ], [ -28539.915171890683268, 522835.816845942405052 ], [ -5324.942936939082756, 480969.870245716301724 ], [ 6422.891417446437117, 443231.015095083916094 ], [ 19670.043497152415512, 345775.624749999784399 ], [ 123075.795525811918196, 345080.103772266185842 ], [ 278020.721721144334879, 351113.771948488603812 ], [ 358203.468254472827539, 356986.3313551354222 ], [ 385428.625552570621949, 331860.876477253623307 ], [ 390838.252983293263242, 358503.916505809116643 ], [ 408839.832785899983719, 366057.160017889575101 ], [ 421280.799132017360535, 398250.004945858672727 ], [ 406073.497905333701055, 430639.161581273016054 ], [ 412231.731752951454837, 450415.008370101975743 ], [ 468063.766733306110837, 473161.863239988451824 ], [ 479724.78130949975457, 497783.915874292608351 ], [ 479306.812486462702509, 530753.350993229658343 ], [ 437276.121590016176924, 573316.410101296729408 ], [ 394636.987602614739444, 615262.884602519334294 ], [ 399098.637593971623573, 654661.063444265397266 ], [ 384820.643568577303085, 681494.985483399475925 ], [ 251906.367523643129971, 675846.943806987721473 ], [ 92208.101474299357506, 672366.487269934499636 ], [ -36488.176830339289154, 671879.558190344832838 ] ] ] } },
{ "type": "Feature", "properties": { "GEOID": "11", "STATEFP": "11", "state_name": "District of Columbia", "state": "DC" }, "geometry": { "type": "Polygon", "coordinates": [ [ [ 1610776.9640560047701, 321299.6873270853539 ], [ 1620745.012568057980388, 306994.387272099789698 ], [ 1629411.661268215160817, 320327.963997662009206 ], [ 1610776.9640560047701, 321299.6873270853539 ] ] ] } },
{ "type": "Feature", "properties": { "GEOID": "53", "STATEFP": "53", "state_name": "Washington", "state": "WA" }, "geometry": { "type": "MultiPolygon", "coordinates": [ [ [ [ -2000237.693754153093323, 1535265.024319972842932 ], [ -1982443.283291558502242, 1499643.091656319098547 ], [ -1965580.201436548028141, 1522688.079181366367266 ], [ -2000237.693754153093323, 1535265.024319972842932 ] ] ], [ [ [ -1545551.853139424230903, 1453075.714360742364079 ], [ -1759347.198827030370012, 1504727.184235775377601 ], [ -1956256.400927550392225, 1558935.389552469365299 ], [ -1960633.761782312998548, 1512828.312776462407783 ], [ -1982696.818380851531401, 1468181.016922688111663 ], [ -2001894.182334006763995, 1467708.971989264711738 ], [ -2074462.745063260896131, 1499369.890819616150111 ], [ -2110711.30639743572101, 1535057.786453002598137 ], [ -2126040.372287931852043, 1490630.032569990959018 ], [ -2116198.696623190771788, 1456021.461506502237171 ], [ -2123053.172078474424779, 1347536.213184238644317 ], [ -2138127.068389284424484, 1297932.952246095752344 ], [ -2098954.701296088285744, 1285187.318990991683677 ], [ -2069268.277745420113206, 1267864.476133234798908 ], [ -2053777.166103939525783, 1237421.625973164336756 ], [ -2059494.872246138053015, 1206643.106971144443378 ], [ -2025264.755162066314369, 1181103.234722143039107 ], [ -1986486.749398863175884, 1188951.994282610481605 ], [ -1933614.027287377044559, 1167663.953848735196516 ], [ -1893611.068756689084694, 1168308.096766420872882 ], [ -1778120.77308964706026, 1160046.028374589979649 ], [ -1765862.564606610685587, 1164673.386136821703985 ], [ -1609574.160280317999423, 1127410.06855346634984 ], [ -1607341.328814934473485, 1181061.128806566353887 ], [ -1545551.853139424230903, 1453075.714360742364079 ] ] ] ] } },
{ "type": "Feature", "properties": { "GEOID": "46", "STATEFP": "46", "state_name": "South Dakota", "state": "SD" }, "geometry": { "type": "Polygon", "coordinates": [ [ [ -633753.01204416109249, 865532.074731860775501 ], [ -652240.620574137079529, 643633.526275844895281 ], [ -492897.788426364015322, 631599.188254837528802 ], [ -340348.287226199463475, 623209.383285737596452 ], [ -202588.107817265990889, 618418.590658128261566 ], [ -158654.341970621462679, 591803.538819479406811 ], [ -150946.637002126662992, 602319.63593486265745 ], [ -100589.494409929975518, 600163.49485954537522 ], [ -56850.57772193870187, 578037.700960580608808 ], [ -36392.927744855645869, 559077.914145671995357 ], [ -50588.826465799960715, 591417.963500921847299 ], [ -35566.688423633371713, 628722.85838739213068 ], [ -36488.176830339289154, 671879.558190344832838 ], [ -35882.16389153223281, 873238.519391217734665 ], [ -64421.331495820173586, 911950.466833752347156 ], [ -43768.499030083694379, 943015.802804834558628 ], [ -270934.119888711255044, 948429.864485768368468 ], [ -431215.438370987423696, 956480.739522830583155 ], [ -623882.83017565717455, 970427.8529848420294 ], [ -633753.01204416109249, 865532.074731860775501 ] ] ] } },
{ "type": "Feature", "properties": { "GEOID": "39", "STATEFP": "39", "state_name": "Ohio", "state": "OH" }, "geometry": { "type": "Polygon", "coordinates": [ [ [ 922749.483767527970485, 524532.057297152816318 ], [ 955652.851750484434888, 236223.298787079518661 ], [ 985895.325150631251745, 241693.133433469105512 ], [ 1011457.994487527641468, 209153.541348353290232 ], [ 1070965.156715873396024, 205081.137076446029823 ], [ 1093581.414799384772778, 196463.444987008319004 ], [ 1125126.638873822055757, 218518.572835119033698 ], [ 1155588.545856574783102, 184961.879206481506117 ], [ 1178233.226259800372645, 191319.80486124617164 ], [ 1182318.522691115504131, 231943.307003637688467 ], [ 1206669.024292198009789, 249924.155554127704818 ], [ 1219573.643124762689695, 290876.41073653800413 ], [ 1262949.033237828640267, 317508.252407556166872 ], [ 1283432.701835526386276, 350557.605785214109346 ], [ 1292651.174889578018337, 457274.712796797102783 ], [ 1268311.793512303149328, 605142.566036932403222 ], [ 1209696.117803704692051, 571132.926302046282217 ], [ 1177376.431718310341239, 535405.987550263409503 ], [ 1155986.362541310023516, 535131.218692830530927 ], [ 1119822.01701311650686, 515360.586074316932354 ], [ 1086020.055951739894226, 533331.05133512977045 ], [ 1033068.004065715591423, 542506.201345832902007 ], [ 922749.483767527970485, 524532.057297152816318 ] ] ] } },
{ "type": "Feature", "properties": { "GEOID": "31", "STATEFP": "31", "state_name": "Nebraska", "state": "NE" }, "geometry": { "type": "Polygon", "coordinates": [ [ [ -652240.620574137079529, 643633.526275844895281 ], [ -671177.632603115751408, 420817.406229846295901 ], [ -504612.461572584928945, 408542.853214021306485 ], [ -511746.503558685304597, 296835.780883285333402 ], [ -322607.139459930884186, 286821.672870073758531 ], [ -85394.851871975857648, 280808.639968073344789 ], [ 58533.804966509116639, 280404.103660810447764 ], [ 29170.61145431307159, 316385.640309983107727 ], [ 19670.043497152415512, 345775.624749999784399 ], [ 6422.891417446437117, 443231.015095083916094 ], [ -5324.942936939082756, 480969.870245716301724 ], [ -28539.915171890683268, 522835.816845942405052 ], [ -36392.927744855645869, 559077.914145671995357 ], [ -56850.57772193870187, 578037.700960580608808 ], [ -100589.494409929975518, 600163.49485954537522 ], [ -150946.637002126662992, 602319.63593486265745 ], [ -158654.341970621462679, 591803.538819479406811 ], [ -202588.107817265990889, 618418.590658128261566 ], [ -340348.287226199463475, 623209.383285737596452 ], [ -492897.788426364015322, 631599.188254837528802 ], [ -652240.620574137079529, 643633.526275844895281 ] ] ] } },
{ "type": "Feature", "properties": { "GEOID": "18", "STATEFP": "18", "state_name": "Indiana", "state": "IN" }, "geometry": { "type": "Polygon", "coordinates": [ [ [ 699267.546960276784375, 502698.658691707882099 ], [ 722169.602351913461462, 239311.984120418172097 ], [ 716624.308691836893559, 211130.436202348966617 ], [ 730859.222654937650077, 173684.939021065889392 ], [ 692063.735675283242017, 88514.809420531004434 ], [ 694484.922745674499311, 62681.314125958080695 ], [ 745967.041779691702686, 83550.409554782410851 ], [ 767716.482972862198949, 73910.724972101626918 ], [ 806882.620714155724272, 83424.161790132158785 ], [ 838733.728293094667606, 115309.345068154434557 ], [ 874581.136840520426631, 105668.029194076298154 ], [ 880716.763767124852166, 134989.333296870579943 ], [ 929726.694716990576126, 186058.186153009446571 ], [ 961470.34614047803916, 211713.707157092751004 ], [ 955652.851750484434888, 236223.298787079518661 ], [ 922749.483767527970485, 524532.057297152816318 ], [ 921922.539737154031172, 531659.864813450607471 ], [ 756220.608643429470249, 513836.100910031702369 ], [ 721768.558009368483908, 494854.196355478197802 ], [ 699267.546960276784375, 502698.658691707882099 ] ] ] } },
{ "type": "Feature", "properties": { "GEOID": "25", "STATEFP": "25", "state_name": "Massachusetts", "state": "MA" }, "geometry": { "type": "Polygon", "coordinates": [ [ [ 1832774.098036558367312, 807810.76808334060479 ], [ 1833457.48725817608647, 727866.394931254093535 ], [ 1969229.674513157922775, 757130.061091165407561 ], [ 2002164.78658410650678, 767021.985176375717856 ], [ 2037991.396799075650051, 716198.120320709072985 ], [ 2069215.796819582115859, 723344.261195068713278 ], [ 2097889.917600677814335, 747952.140463352203369 ], [ 2060976.899594614747912, 776103.287144236615859 ], [ 2048211.960587420035154, 801646.268665132462047 ], [ 2024651.722304170485586, 812050.049842896522023 ], [ 2043271.627528036013246, 843328.664184708730318 ], [ 2021985.398686679080129, 871128.340275299735367 ], [ 1989603.765887771034613, 842144.219265307649039 ], [ 1896995.958605442894623, 821565.839599262923002 ], [ 1832774.098036558367312, 807810.76808334060479 ] ] ] } },
{ "type": "Feature", "properties": { "GEOID": "32", "STATEFP": "32", "state_name": "Nevada", "state": "NV" }, "geometry": { "type": "Polygon", "coordinates": [ [ [ -1953555.911308415932581, 751504.888281971565448 ], [ -2037521.771388754947111, 426744.596567129599862 ], [ -1675823.607426343485713, -114957.058111892241868 ], [ -1660763.677592772757635, 7884.422733609105308 ], [ -1598516.341665781801566, 5922.391043964104938 ], [ -1581791.427575120702386, 94690.230270812317031 ], [ -1475457.777441720943898, 643901.067138893413357 ], [ -1715671.062786517897621, 694688.901709067868069 ], [ -1953555.911308415932581, 751504.888281971565448 ] ] ] } },
{ "type": "Feature", "properties": { "GEOID": "38", "STATEFP": "38", "state_name": "North Dakota", "state": "ND" }, "geometry": { "type": "Polygon", "coordinates": [ [ [ -595594.383279208093882, 1306659.031157439108938 ], [ -623882.83017565717455, 970427.8529848420294 ], [ -431215.438370987423696, 956480.739522830583155 ], [ -270934.119888711255044, 948429.864485768368468 ], [ -43768.499030083694379, 943015.802804834558628 ], [ -46400.367155633815855, 985672.998157871654257 ], [ -60735.609448844566941, 1020951.16143541620113 ], [ -64688.358974025817588, 1124433.153331813169643 ], [ -86060.53999994766491, 1190476.690090196905658 ], [ -81916.900948952330509, 1245410.855834093643352 ], [ -91052.171681408537552, 1282100.079023656900972 ], [ -289882.158083988411818, 1287301.377019088948146 ], [ -460279.645816262695007, 1296337.831200168002397 ], [ -595594.383279208093882, 1306659.031157439108938 ] ] ] } },
{ "type": "Feature", "properties": { "GEOID": "05", "STATEFP": "05", "state_name": "Arkansas", "state": "AR" }, "geometry": { "type": "Polygon", "coordinates": [ [ [ 122656.34724469880166, -111221.391880965835298 ], [ 141285.787653471983504, -237460.184371983108576 ], [ 139474.719311735796509, -431160.465920357906725 ], [ 180424.711916522588581, -440069.627313821052667 ], [ 181691.061148222564952, -499476.499753502372187 ], [ 448705.351007641176693, -491619.727083745703567 ], [ 456410.336524247191846, -465647.308288844127674 ], [ 441153.971621217089705, -433277.3926953470218 ], [ 466565.618510238244198, -354194.362415819836315 ], [ 494490.638391969783697, -331284.220136514690239 ], [ 492131.2814746433869, -308952.031071794452146 ], [ 514827.369624248589389, -265048.391764802276157 ], [ 541717.088819052209146, -184914.70022483804496 ], [ 561745.830136447912082, -170835.820383441838203 ], [ 559470.710253209457733, -149526.956455109175295 ], [ 502828.193104419508018, -153615.546388157323236 ], [ 527856.563368804054335, -117619.008106450724881 ], [ 518548.948221247759648, -96614.489970863680355 ], [ 255038.708342947298661, -108431.614889820164535 ], [ 122656.34724469880166, -111221.391880965835298 ] ] ] } },
{ "type": "Feature", "properties": { "GEOID": "28", "STATEFP": "28", "state_name": "Mississippi", "state": "MS" }, "geometry": { "type": "Polygon", "coordinates": [ [ [ 448705.351007641176693, -491619.727083745703567 ], [ 466147.869201115972828, -591564.122783958213404 ], [ 437320.245879377820529, -626676.076223340234719 ], [ 415280.318391554174013, -716850.156644163071178 ], [ 596715.624707926996052, -706351.778558294405229 ], [ 588420.612077545956708, -737560.61898907693103 ], [ 622277.348533617681824, -796140.084017546148971 ], [ 681001.851212060195394, -768263.879721493809484 ], [ 728928.111235458170995, -767217.522033194079995 ], [ 708113.977629105560482, -594376.430980054894462 ], [ 715454.518613212974742, -262283.287377184838988 ], [ 705275.750316638383083, -251514.623528926633298 ], [ 514827.369624248589389, -265048.391764802276157 ], [ 492131.2814746433869, -308952.031071794452146 ], [ 494490.638391969783697, -331284.220136514690239 ], [ 466565.618510238244198, -354194.362415819836315 ], [ 441153.971621217089705, -433277.3926953470218 ], [ 456410.336524247191846, -465647.308288844127674 ], [ 448705.351007641176693, -491619.727083745703567 ] ] ] } },
{ "type": "Feature", "properties": { "GEOID": "08", "STATEFP": "08", "state_name": "Colorado", "state": "CO" }, "geometry": { "type": "Polygon", "coordinates": [ [ [ -1085520.668986220378429, 466928.316976586647797 ], [ -1128178.875568309566006, 164559.518588852748508 ], [ -1146479.879387496504933, 22679.806382120299531 ], [ -921797.949121945654042, -5867.77638898306941 ], [ -768805.411444252473302, -21419.017642668295593 ], [ -616758.562318329582922, -33286.272659184367512 ], [ -532377.728794196038507, -39875.061019775843306 ], [ -511746.503558685304597, 296835.780883285333402 ], [ -504612.461572584928945, 408542.853214021306485 ], [ -671177.632603115751408, 420817.406229846295901 ], [ -848738.457956538535655, 437501.754888327268418 ], [ -1085520.668986220378429, 466928.316976586647797 ] ] ] } },
{ "type": "Feature", "properties": { "GEOID": "37", "STATEFP": "37", "state_name": "North Carolina", "state": "NC" }, "geometry": { "type": "Polygon", "coordinates": [ [ [ 1264830.529832528205588, -6684.357722357505736 ], [ 1241651.755084799602628, -62690.982997819257434 ], [ 1224984.683836043113843, -61215.852329182285757 ], [ 1177429.644462948897853, -86855.569944406714058 ], [ 1163027.462289835559204, -112585.924658291914966 ], [ 1120089.640925905434415, -143198.486592048371676 ], [ 1095743.473871742375195, -146481.645017068833113 ], [ 1054766.920164168113843, -189527.588096211839002 ], [ 1054571.925879784161225, -216405.369152903847862 ], [ 1163307.07767597748898, -200888.354655875446042 ], [ 1222594.709574699634686, -169770.269085630134214 ], [ 1345676.928856744430959, -157169.376225098763825 ], [ 1373409.338658425491303, -189598.691621538164327 ], [ 1474143.204899512929842, -174903.972537576366449 ], [ 1594924.545154828811064, -261529.354836777609307 ], [ 1647317.937055726302788, -251377.924689506005961 ], [ 1665774.150326440110803, -190161.161668556596851 ], [ 1704346.990092043066397, -151342.293988956836984 ], [ 1739440.378171458374709, -136927.135937921848381 ], [ 1758899.423913563834503, -145252.655699611001182 ], [ 1785138.423035569489002, -94107.456986640798277 ], [ 1832870.977800279157236, -56585.965940933740058 ], [ 1830579.527296000858769, -14602.989511602672792 ], [ 1795532.25642683240585, 37010.368230405103532 ], [ 1772269.084679317427799, 82072.379692711998359 ], [ 1542651.224982409970835, 34910.311457482370315 ], [ 1386651.863961013033986, 7715.620909187244251 ], [ 1264830.529832528205588, -6684.357722357505736 ] ] ] } },
{ "type": "Feature", "properties": { "GEOID": "49", "STATEFP": "49", "state_name": "Utah", "state": "UT" }, "geometry": { "type": "Polygon", "coordinates": [ [ [ -1475457.777441720943898, 643901.067138893413357 ], [ -1581791.427575120702386, 94690.230270812317031 ], [ -1341139.265944996615872, 52060.868698202451924 ], [ -1146479.879387496504933, 22679.806382120299531 ], [ -1128178.875568309566006, 164559.518588852748508 ], [ -1085520.668986220378429, 466928.316976586647797 ], [ -1250354.798462697071955, 491168.536131590371951 ], [ -1232641.649569240631536, 602088.391342560062185 ], [ -1475457.777441720943898, 643901.067138893413357 ] ] ] } },
{ "type": "Feature", "properties": { "GEOID": "40", "STATEFP": "40", "state_name": "Oklahoma", "state": "OK" }, "geometry": { "type": "Polygon", "coordinates": [ [ [ -616758.562318329582922, -33286.272659184367512 ], [ -620900.677329867961816, -89117.592867942425073 ], [ -354932.67407903901767, -104609.53215105527488 ], [ -364065.049378592811991, -321483.14837916410761 ], [ -337201.053808478463907, -342657.045133260719012 ], [ -298779.946948912751395, -343444.578162304998841 ], [ -291599.85303175955778, -362961.640837982238736 ], [ -250531.019085010077106, -373560.886854352778755 ], [ -192222.344312962173717, -378029.968566105992068 ], [ -171398.593544881499838, -406957.158135402947664 ], [ -153300.279739652498392, -391425.83045097469585 ], [ -110817.513043520521023, -412357.953459957789164 ], [ -83061.068854456418194, -397312.687670816725586 ], [ -33427.724537868518382, -425913.129688112938311 ], [ -13933.496816251708879, -410578.055561443674378 ], [ 70968.836425694622449, -395772.775744196143933 ], [ 106567.300508192085545, -420276.119991539861076 ], [ 139474.719311735796509, -431160.465920357906725 ], [ 141285.787653471983504, -237460.184371983108576 ], [ 122656.34724469880166, -111221.391880965835298 ], [ 121838.567387793998932, -55266.841670380483265 ], [ -128918.195070929796202, -55169.935925588790269 ], [ -300301.728149315458722, -50693.661754939523234 ], [ -532377.728794196038507, -39875.061019775843306 ], [ -616758.562318329582922, -33286.272659184367512 ] ] ] } },
{ "type": "Feature", "properties": { "GEOID": "56", "STATEFP": "56", "state_name": "Wyoming", "state": "WY" }, "geometry": { "type": "Polygon", "coordinates": [ [ [ -633753.01204416109249, 865532.074731860775501 ], [ -806691.702347415499389, 881846.919726841966622 ], [ -981511.521241786773317, 903547.370398710016161 ], [ -1179668.699324775487185, 932653.600429271231405 ], [ -1189292.121341378893703, 874737.558998386957683 ], [ -1232641.649569240631536, 602088.391342560062185 ], [ -1250354.798462697071955, 491168.536131590371951 ], [ -1085520.668986220378429, 466928.316976586647797 ], [ -848738.457956538535655, 437501.754888327268418 ], [ -671177.632603115751408, 420817.406229846295901 ], [ -652240.620574137079529, 643633.526275844895281 ], [ -633753.01204416109249, 865532.074731860775501 ] ] ] } },
{ "type": "Feature", "properties": { "GEOID": "54", "STATEFP": "54", "state_name": "West Virginia", "state": "WV" }, "geometry": { "type": "Polygon", "coordinates": [ [ [ 1155588.545856574783102, 184961.879206481506117 ], [ 1157316.593591401120648, 152719.300527511601103 ], [ 1192909.39013272151351, 107023.773754378984449 ], [ 1223687.032834456302226, 94739.547884409796097 ], [ 1238130.865095215151086, 68278.185970956925303 ], [ 1264586.133628764888272, 63383.379525074116827 ], [ 1318532.221671453909948, 83115.864050241434597 ], [ 1368667.582164590945467, 117465.211897230299655 ], [ 1365899.700584605103359, 133731.728752986789914 ], [ 1398150.032575999153778, 206221.743160582525888 ], [ 1403867.167065507499501, 243408.738902036013315 ], [ 1437154.041716819396242, 229332.20544656724087 ], [ 1454137.901201897067949, 280615.943973551737145 ], [ 1472191.695570800453424, 290016.993623909715097 ], [ 1497052.573661195114255, 324791.838920921785757 ], [ 1496311.413750104373321, 359727.840431826829445 ], [ 1546875.312687808182091, 331301.149426628835499 ], [ 1551959.846590300090611, 353864.962265957496129 ], [ 1537046.311009721830487, 381333.776326892781071 ], [ 1514185.18533903057687, 386511.922336641175207 ], [ 1433782.487723865313455, 348959.30563129048096 ], [ 1405747.161483296891674, 313648.718016775033902 ], [ 1396620.832396344514564, 370658.492527920869179 ], [ 1309290.872958096908405, 355849.962565859139431 ], [ 1292651.174889578018337, 457274.712796797102783 ], [ 1283432.701835526386276, 350557.605785214109346 ], [ 1262949.033237828640267, 317508.252407556166872 ], [ 1219573.643124762689695, 290876.41073653800413 ], [ 1206669.024292198009789, 249924.155554127704818 ], [ 1182318.522691115504131, 231943.307003637688467 ], [ 1178233.226259800372645, 191319.80486124617164 ], [ 1155588.545856574783102, 184961.879206481506117 ] ] ] } },
{ "type": "Feature", "properties": { "GEOID": "45", "STATEFP": "45", "state_name": "South Carolina", "state": "SC" }, "geometry": { "type": "Polygon", "coordinates": [ [ [ 1163307.07767597748898, -200888.354655875446042 ], [ 1147403.897711589932442, -239011.19562104990473 ], [ 1192508.446058763191104, -256612.661236410727724 ], [ 1229409.79330889089033, -310816.875800724723376 ], [ 1294609.830194135429338, -355773.464714584115427 ], [ 1315432.778706582030281, -387804.586293429776561 ], [ 1340939.814242891501635, -399321.965994123776909 ], [ 1357561.417692118091509, -442988.245118529710453 ], [ 1378645.970990299247205, -455557.753140520711895 ], [ 1392292.193165776552632, -493117.589104440296069 ], [ 1414807.679943527793512, -498403.230777104909066 ], [ 1457447.327901913085952, -441275.765050988295116 ], [ 1486189.096994690597057, -422062.944137663114816 ], [ 1547622.747124734567478, -349103.23239407048095 ], [ 1550029.076120890909806, -320510.423357084800955 ], [ 1575660.376344082411379, -274469.431638878479134 ], [ 1594924.545154828811064, -261529.354836777609307 ], [ 1474143.204899512929842, -174903.972537576366449 ], [ 1373409.338658425491303, -189598.691621538164327 ], [ 1345676.928856744430959, -157169.376225098763825 ], [ 1222594.709574699634686, -169770.269085630134214 ], [ 1163307.07767597748898, -200888.354655875446042 ] ] ] } },
{ "type": "Feature", "properties": { "GEOID": "23", "STATEFP": "23", "state_name": "Maine", "state": "ME" }, "geometry": { "type": "Polygon", "coordinates": [ [ [ 1930763.935211908305064, 1127478.539473609533161 ], [ 1989507.229307228000835, 943086.388985477155074 ], [ 1994243.402986299712211, 921920.35507643118035 ], [ 2025370.030256329569966, 893760.9820262263529 ], [ 2048759.157007824396715, 971466.90765659022145 ], [ 2108593.822801851667464, 1009487.111852035974152 ], [ 2168135.097417974844575, 1057111.032075841911137 ], [ 2183311.697050945367664, 1093199.052693579113111 ], [ 2239501.494291970971972, 1135158.696333604864776 ], [ 2258154.440899480134249, 1166466.34941083798185 ], [ 2236090.818241141270846, 1193929.479259036015719 ], [ 2203358.273069681134075, 1201889.046590083511546 ], [ 2200365.66907148109749, 1228173.19148260471411 ], [ 2165827.025294455699623, 1237988.133270039921626 ], [ 2121828.466279366519302, 1385440.302509141620249 ], [ 2070862.089527724310756, 1403506.79581887088716 ], [ 2037065.079304249491543, 1373075.409361829049885 ], [ 2005161.372751736780629, 1395863.187873926013708 ], [ 1971235.863971390994266, 1298541.645388940349221 ], [ 1974995.604525628965348, 1268984.130366660188884 ], [ 1964602.124809307977557, 1238067.547613943694159 ], [ 1975733.218191159889102, 1207170.26630366849713 ], [ 1949986.523517343215644, 1147146.656902484828606 ], [ 1930763.935211908305064, 1127478.539473609533161 ] ] ] } },
{ "type": "Feature", "properties": { "GEOID": "01", "STATEFP": "01", "state_name": "Alabama", "state": "AL" }, "geometry": { "type": "Polygon", "coordinates": [ [ [ 705275.750316638383083, -251514.623528926633298 ], [ 715454.518613212974742, -262283.287377184838988 ], [ 708113.977629105560482, -594376.430980054894462 ], [ 728928.111235458170995, -767217.522033194079995 ], [ 754129.850909537752159, -770587.835450903861783 ], [ 758222.223793155746534, -734111.309651398449205 ], [ 786570.773012889083475, -767452.303329704212956 ], [ 813627.855086893541738, -769949.446889335289598 ], [ 821147.303104894584976, -727249.120425792294554 ], [ 798880.875382047146559, -691272.434810567996465 ], [ 960530.047018348355778, -675925.390404490521178 ], [ 1044769.375856865546666, -665724.651652847533114 ], [ 1032473.495038561173715, -646346.467956021428108 ], [ 1034080.568867300753482, -606029.115342739154585 ], [ 1020950.092774561606348, -574522.701024779235013 ], [ 1024929.335047591244802, -540782.247922617825679 ], [ 1038838.108934806426987, -524867.956431274767965 ], [ 1004025.058314812951721, -461772.821847424667794 ], [ 939223.081733438768424, -230281.864205016929191 ], [ 705275.750316638383083, -251514.623528926633298 ] ] ] } },
{ "type": "Feature", "properties": { "GEOID": "20", "STATEFP": "20", "state_name": "Kansas", "state": "KS" }, "geometry": { "type": "Polygon", "coordinates": [ [ [ -511746.503558685304597, 296835.780883285333402 ], [ -532377.728794196038507, -39875.061019775843306 ], [ -300301.728149315458722, -50693.661754939523234 ], [ -128918.195070929796202, -55169.935925588790269 ], [ 121838.567387793998932, -55266.841670380483265 ], [ 119301.041177089355187, 181712.947730969724944 ], [ 102696.786224985553417, 191862.971458251326112 ], [ 75478.283093707650551, 230559.122791941830656 ], [ 96772.648612314806087, 252705.65525872859871 ], [ 58533.804966509116639, 280404.103660810447764 ], [ -85394.851871975857648, 280808.639968073344789 ], [ -322607.139459930884186, 286821.672870073758531 ], [ -511746.503558685304597, 296835.780883285333402 ] ] ] } },
{ "type": "Feature", "properties": { "GEOID": "44", "STATEFP": "44", "state_name": "Rhode Island", "state": "RI" }, "geometry": { "type": "Polygon", "coordinates": [ [ [ 1983693.29920120513998, 681362.630986187374219 ], [ 2037991.396799075650051, 716198.120320709072985 ], [ 2002164.78658410650678, 767021.985176375717856 ], [ 1969229.674513157922775, 757130.061091165407561 ], [ 1983693.29920120513998, 681362.630986187374219 ] ] ] } },
{ "type": "Feature", "properties": { "GEOID": "09", "STATEFP": "09", "state_name": "Connecticut", "state": "CT" }, "geometry": { "type": "Polygon", "coordinates": [ [ [ 1833457.48725817608647, 727866.394931254093535 ], [ 1848122.912794108968228, 644585.458888140856288 ], [ 1847619.409446214092895, 608741.318600072292611 ], [ 1898787.450843224301934, 652699.918186860159039 ], [ 1983693.29920120513998, 681362.630986187374219 ], [ 1969229.674513157922775, 757130.061091165407561 ], [ 1833457.48725817608647, 727866.394931254093535 ] ] ] } },
{ "type": "Feature", "properties": { "GEOID": "26", "STATEFP": "26", "state_name": "Michigan", "state": "MI" }, "geometry": { "type": "MultiPolygon", "coordinates": [ [ [ [ 756220.608643429470249, 513836.100910031702369 ], [ 921922.539737154031172, 531659.864813450607471 ], [ 922749.483767527970485, 524532.057297152816318 ], [ 1033068.004065715591423, 542506.201345832902007 ], [ 1053916.229068807559088, 585439.233726705773734 ], [ 1069240.137109361123294, 638770.381080788909458 ], [ 1095972.118182241683826, 653305.08619176200591 ], [ 1097694.953088099369779, 695122.904319432331249 ], [ 1085624.98409486352466, 718193.87581722298637 ], [ 1067298.661053505260497, 783890.417630815180019 ], [ 1040232.289490608032793, 806921.988670271239243 ], [ 1004602.24243441678118, 785247.330450642970391 ], [ 987439.852399639203213, 745936.726686455775052 ], [ 964317.927628131350502, 759222.685626098886132 ], [ 967348.68233038240578, 784975.698304049787112 ], [ 988577.889743362786248, 798531.287389244185761 ], [ 1004047.158521044184454, 831640.026113567175344 ], [ 999326.811990267247893, 908974.935992950224318 ], [ 986385.409368320833892, 935000.026114708394744 ], [ 918531.933506353758276, 965154.840903609758243 ], [ 875986.814897503936663, 977435.448254632763565 ], [ 847647.418632139684632, 950787.064688668353483 ], [ 831808.490123106632382, 915625.39542047760915 ], [ 833886.809972398565151, 890727.697091350913979 ], [ 782404.030596512486227, 869990.824226225842722 ], [ 769950.957171436864883, 844970.952412385260686 ], [ 772386.626422115019523, 805609.850896531250328 ], [ 756117.763063339749351, 771779.769749619881622 ], [ 758629.092237316304818, 725672.898263298207894 ], [ 787911.916636868845671, 665667.591910150251351 ], [ 795329.280395001522265, 630421.81500031799078 ], [ 789117.007954481290653, 572626.826401017839089 ], [ 756220.608643429470249, 513836.100910031702369 ] ] ], [ [ [ 429071.487391512375325, 1025460.153863267973065 ], [ 453493.945264410984237, 1001477.278128686943091 ], [ 534319.597610183875076, 984873.6712790671736 ], [ 556891.016118653584272, 973543.289421896799468 ], [ 611655.892294564982876, 966827.333544843248092 ], [ 639910.654014991247095, 941555.531839291215874 ], [ 636554.45739032200072, 905467.976227625622414 ], [ 660413.02317296678666, 878774.156055081752129 ], [ 687301.160428123897873, 944462.569508811226115 ], [ 716656.808043166063726, 963950.856823787209578 ], [ 735745.935104298871011, 954307.586249265586957 ], [ 753513.003497604746372, 982218.436067290604115 ], [ 781905.480970736825839, 982663.568317923578434 ], [ 808747.296122281812131, 1003455.40674887096975 ], [ 839049.829541530343704, 1003644.27526966878213 ], [ 869218.786080183112063, 985699.454936110181734 ], [ 880339.257388962199911, 997348.338035919005051 ], [ 922655.473414895241149, 1004775.22224734001793 ], [ 912177.548232030007057, 1064583.182942277984694 ], [ 847641.306292821071111, 1052151.315469165565446 ], [ 840602.889945010654628, 1073513.655271698487923 ], [ 755907.286067333188839, 1063948.650883694877848 ], [ 725904.311387926689349, 1040229.934247890952975 ], [ 663686.5785100790672, 1036507.188746982021257 ], [ 643466.67162634502165, 1065349.972285293508321 ], [ 599902.03149895532988, 1082026.2524217965547 ], [ 589893.370063446229324, 1134691.074260738212615 ], [ 503924.532530350552406, 1061100.813184574944898 ], [ 472360.610794513311703, 1054548.701870712917298 ], [ 429071.487391512375325, 1025460.153863267973065 ] ] ] ] } },
{ "type": "Feature", "properties": { "GEOID": "10", "STATEFP": "10", "state_name": "Delaware", "state": "DE" }, "geometry": { "type": "Polygon", "coordinates": [ [ [ 1733131.945221196394414, 446438.367147978919093 ], [ 1704048.269873092183843, 430955.018433067190927 ], [ 1741920.557803520699963, 294426.403467483236454 ], [ 1796563.903719043591991, 305460.081088456790894 ], [ 1784681.378733069403097, 342534.260141784499865 ], [ 1763848.959364878479391, 351214.967952333972789 ], [ 1731041.288279072614387, 411124.239899500680622 ], [ 1733131.945221196394414, 446438.367147978919093 ] ] ] } },
{ "type": "Feature", "properties": { "GEOID": "35", "STATEFP": "35", "state_name": "New Mexico", "state": "NM" }, "geometry": { "type": "Polygon", "coordinates": [ [ [ -1146479.879387496504933, 22679.806382120299531 ], [ -1233579.222213898785412, -604499.39812864526175 ], [ -1154478.187195926904678, -614973.490046040853485 ], [ -1148040.350909148808569, -565268.229121761745773 ], [ -990748.376858458388597, -584225.093385298619978 ], [ -996505.807930919574574, -559219.507232556934468 ], [ -859528.126457003643736, -573520.606804882409051 ], [ -663739.703385708737187, -590265.60433598968666 ], [ -644599.041566940024495, -359039.137504398531746 ], [ -624395.485264424118213, -88854.166309103893582 ], [ -620900.677329867961816, -89117.592867942425073 ], [ -616758.562318329582922, -33286.272659184367512 ], [ -768805.411444252473302, -21419.017642668295593 ], [ -921797.949121945654042, -5867.77638898306941 ], [ -1146479.879387496504933, 22679.806382120299531 ] ] ] } },
{ "type": "Feature", "properties": { "GEOID": "50", "STATEFP": "50", "state_name": "Vermont", "state": "VT" }, "geometry": { "type": "Polygon", "coordinates": [ [ [ 1766936.601937642320991, 1051771.822203274816275 ], [ 1773617.258544458309188, 1008575.944528977153823 ], [ 1785752.143317518057302, 990997.976847838959657 ], [ 1785131.515932850306854, 945198.562474170001224 ], [ 1813685.182589681586251, 893856.006684040301479 ], [ 1832774.098036558367312, 807810.76808334060479 ], [ 1896995.958605442894623, 821565.839599262923002 ], [ 1879960.33069664100185, 914858.875444382429123 ], [ 1891924.491069129202515, 978832.926865228801034 ], [ 1885946.083378846989945, 999033.427952888421714 ], [ 1915916.6715242927894, 1030985.220806898432784 ], [ 1905381.2360381889157, 1056481.776462881593034 ], [ 1907446.220248844008893, 1087657.036129883024842 ], [ 1766936.601937642320991, 1051771.822203274816275 ] ] ] } },
{ "type": "Feature", "properties": { "GEOID": "34", "STATEFP": "34", "state_name": "New Jersey", "state": "NJ" }, "geometry": { "type": "Polygon", "coordinates": [ [ [ 1733131.945221196394414, 446438.367147978919093 ], [ 1731041.288279072614387, 411124.239899500680622 ], [ 1793213.434700204059482, 384249.588855386595242 ], [ 1827236.2226988223847, 416993.841458272770979 ], [ 1842997.618959990795702, 466155.927423342422117 ], [ 1838513.943251431686804, 533223.375305969966576 ], [ 1810877.370178143261001, 544512.197115115588531 ], [ 1828096.051011167932302, 605474.803558283485472 ], [ 1754030.336194963427261, 629662.445952958078124 ], [ 1727743.346156463492662, 580435.628535654279403 ], [ 1733367.448583485092968, 534556.549296593060717 ], [ 1781799.769013944780454, 497738.916355614783242 ], [ 1733131.945221196394414, 446438.367147978919093 ] ] ] } },
{ "type": "Feature", "properties": { "GEOID": "42", "STATEFP": "42", "state_name": "Pennsylvania", "state": "PA" }, "geometry": { "type": "Polygon", "coordinates": [ [ [ 1268311.793512303149328, 605142.566036932403222 ], [ 1292651.174889578018337, 457274.712796797102783 ], [ 1309290.872958096908405, 355849.962565859139431 ], [ 1396620.832396344514564, 370658.492527920869179 ], [ 1604113.901169204851612, 409791.064253279357217 ], [ 1704048.269873092183843, 430955.018433067190927 ], [ 1733131.945221196394414, 446438.367147978919093 ], [ 1781799.769013944780454, 497738.916355614783242 ], [ 1733367.448583485092968, 534556.549296593060717 ], [ 1727743.346156463492662, 580435.628535654279403 ], [ 1754030.336194963427261, 629662.445952958078124 ], [ 1727332.611452321289107, 639574.649576188647188 ], [ 1715329.733699491713196, 666250.193913905415684 ], [ 1686348.412328303558752, 687336.987693245639093 ], [ 1503468.571025150362402, 649955.608535538543947 ], [ 1329427.092347350437194, 617852.10694606974721 ], [ 1324220.593200334813446, 647717.351830248488113 ], [ 1268311.793512303149328, 605142.566036932403222 ] ] ] } },
{ "type": "Feature", "properties": { "GEOID": "33", "STATEFP": "33", "state_name": "New Hampshire", "state": "NH" }, "geometry": { "type": "Polygon", "coordinates": [ [ [ 1907446.220248844008893, 1087657.036129883024842 ], [ 1905381.2360381889157, 1056481.776462881593034 ], [ 1915916.6715242927894, 1030985.220806898432784 ], [ 1885946.083378846989945, 999033.427952888421714 ], [ 1891924.491069129202515, 978832.926865228801034 ], [ 1879960.33069664100185, 914858.875444382429123 ], [ 1896995.958605442894623, 821565.839599262923002 ], [ 1989603.765887771034613, 842144.219265307649039 ], [ 2021985.398686679080129, 871128.340275299735367 ], [ 2025370.030256329569966, 893760.9820262263529 ], [ 1994243.402986299712211, 921920.35507643118035 ], [ 1989507.229307228000835, 943086.388985477155074 ], [ 1930763.935211908305064, 1127478.539473609533161 ], [ 1915735.8033486912027, 1123062.661525310017169 ], [ 1907446.220248844008893, 1087657.036129883024842 ] ] ] } },
{ "type": "Feature", "properties": { "GEOID": "04", "STATEFP": "04", "state_name": "Arizona", "state": "AZ" }, "geometry": { "type": "Polygon", "coordinates": [ [ [ -1733395.168170296354219, -363595.879029835457914 ], [ -1746908.153809820069, -386425.993982500571292 ], [ -1620273.062469528755173, -462342.560893269546796 ], [ -1423481.02638402604498, -576221.562219300540164 ], [ -1233579.222213898785412, -604499.39812864526175 ], [ -1146479.879387496504933, 22679.806382120299531 ], [ -1341139.265944996615872, 52060.868698202451924 ], [ -1581791.427575120702386, 94690.230270812317031 ], [ -1598516.341665781801566, 5922.391043964104938 ], [ -1660763.677592772757635, 7884.422733609105308 ], [ -1675823.607426343485713, -114957.058111892241868 ], [ -1678714.176730090286583, -129093.40623327405774 ], [ -1647655.542879869928584, -205075.854668477724772 ], [ -1690338.522770234383643, -234436.467411596386228 ], [ -1697545.530184944858775, -275861.825579066353384 ], [ -1717911.928413812769577, -291813.809901655011345 ], [ -1721979.028344804421067, -329551.591843567148317 ], [ -1707756.246788604883477, -354302.323581751901656 ], [ -1733395.168170296354219, -363595.879029835457914 ] ] ] } },
{ "type": "Feature", "properties": { "GEOID": "02", "STATEFP": "02", "state_name": "Alaska", "state": "AK" }, "geometry": { "type": "MultiPolygon", "coordinates": [ [ [ [ -1410681.391547278501093, -1482308.082055183127522 ], [ -1398605.035701287910342, -1505547.492153878090903 ], [ -1357643.761285505257547, -1536665.334591790800914 ], [ -1331529.827711909078062, -1522530.101316106505692 ], [ -1339184.465494331438094, -1502224.553821205627173 ], [ -1395802.757041612407193, -1453461.253609246341512 ], [ -1410681.391547278501093, -1482308.082055183127522 ] ] ], [ [ [ -1439658.878806170076132, -1436172.702511919662356 ], [ -1415156.78277731849812, -1456200.935903421137482 ], [ -1384073.074817518237978, -1437280.94792518671602 ], [ -1404701.93480764515698, -1416897.496092066634446 ], [ -1439658.878806170076132, -1436172.702511919662356 ] ] ], [ [ [ -1480511.785710713360459, -1358675.708643219433725 ], [ -1453142.916068415157497, -1408582.596725021488965 ], [ -1435112.600760232191533, -1391226.750515197403729 ], [ -1453485.176580433500931, -1369583.170182775706053 ], [ -1480511.785710713360459, -1358675.708643219433725 ] ] ], [ [ [ -1520114.813059003092349, -1391232.015124607365578 ], [ -1473102.151584800099954, -1447367.052949965000153 ], [ -1437103.461296069668606, -1470270.762261692434549 ], [ -1474444.939462009817362, -1378248.59034783160314 ], [ -1498950.228217384312302, -1373992.393485569395125 ], [ -1520114.813059003092349, -1391232.015124607365578 ] ] ], [ [ [ -2051117.373045271029696, -1495460.430105875711888 ], [ -2028240.862294941674918, -1533379.314213687088341 ], [ -1994509.268764597596601, -1508398.791659449692816 ], [ -1981385.35323169757612, -1474936.295075769769028 ], [ -1988179.299974571214989, -1433558.750708238687366 ], [ -2051117.373045271029696, -1495460.430105875711888 ] ] ], [ [ [ -2350767.09203625889495, -998019.611304117599502 ], [ -2320471.164869640022516, -1048079.947798898792826 ], [ -2318986.091647596098483, -1065360.14510732376948 ], [ -2247198.858762206044048, -1088408.759769855532795 ], [ -2202771.504474722314626, -1071970.268724550493062 ], [ -2189848.202439558692276, -1081976.600909429835156 ], [ -2194539.778508747462183, -1130105.911319383885711 ], [ -2235034.065047145821154, -1142268.392965359147638 ], [ -2255352.735159845091403, -1161890.11830930178985 ], [ -2293615.614863722585142, -1153102.016180081292987 ], [ -2329548.813343110028654, -1202174.644754300825298 ], [ -2338504.971233839634806, -1257479.942034604493529 ], [ -2337184.473682964686304, -1293545.903330049011856 ], [ -2291224.303540347144008, -1340260.399294901406392 ], [ -2255450.316191790625453, -1331154.691841773688793 ], [ -2244622.996485743671656, -1364301.911442661657929 ], [ -2255921.138404808007181, -1376283.607175861019641 ], [ -2252122.680109824053943, -1416271.138304116902873 ], [ -2220586.758289716206491, -1398959.77904061996378 ], [ -2183494.919692379888147, -1410641.732015920802951 ], [ -2175031.077992907259613, -1430956.105504660867155 ], [ -2128892.012221063487232, -1430701.818119979230687 ], [ -2137458.468965986743569, -1481528.093311954289675 ], [ -2179003.809479552786797, -1519186.598013944923878 ], [ -2224890.799888766370714, -1546736.791379875969142 ], [ -2232796.542954728472978, -1562579.345844362396747 ], [ -2271145.058220780920237, -1563512.988925390643999 ], [ -2309764.8340242090635, -1594535.718021014938131 ], [ -2366268.906063017435372, -1610265.69732494908385 ], [ -2350837.991082121152431, -1623936.146031368058175 ], [ -2280952.454508731141686, -1606086.215342290699482 ], [ -2270492.592398563399911, -1590734.228747421642765 ], [ -2233458.312696631532162, -1590992.686142811086029 ], [ -2210646.093542924150825, -1574764.097128815017641 ], [ -2165715.132941671647131, -1567520.55115079251118 ], [ -2166212.482505407184362, -1548074.823113878956065 ], [ -2105061.688500499818474, -1515418.058496894780546 ], [ -2098523.310730126220733, -1492432.677813357440755 ], [ -2034252.693356467178091, -1452797.37521045957692 ], [ -2023416.741833199979737, -1426023.730628600111231 ], [ -2032875.327348248101771, -1397441.446927761426196 ], [ -2014860.404266967205331, -1369060.412828049622476 ], [ -1991524.702610076405108, -1352531.658926594303921 ], [ -1982010.782746789976954, -1321375.740105015225708 ], [ -1956537.059760099975392, -1335140.849954812554643 ], [ -1968098.537596736801788, -1360380.795532278483734 ], [ -1960968.56945105153136, -1398146.106360997073352 ], [ -1926572.151691124076024, -1382424.199348802911118 ], [ -1892165.44571973150596, -1345208.444294936023653 ], [ -1846710.387759675970301, -1348412.896981940604746 ], [ -1832941.475954929599538, -1321761.099783634301275 ], [ -1783182.133987721521407, -1314104.275180690456182 ], [ -1747874.189315088093281, -1327888.656477645970881 ], [ -1717270.789804166182876, -1316795.990042428486049 ], [ -1644476.995268443366513, -1326043.301192445214838 ], [ -1580620.667398728895932, -1349181.712662459816784 ], [ -1523577.748089724918827, -1381586.651488576782867 ], [ -1485248.921446404885501, -1357416.799475078238174 ], [ -1454440.398521145107225, -1362758.703302138950676 ], [ -1378030.785286544589326, -1434022.953463641693816 ], [ -1391199.520884793484583, -1445706.423233882989734 ], [ -1340203.19103170488961, -1486327.671898010186851 ], [ -1324177.255385681521147, -1510826.205379500985146 ], [ -1291240.222985761705786, -1508949.171686463989317 ], [ -1281655.735768006648868, -1476504.918780639069155 ], [ -1301377.398732519708574, -1433200.612910889787599 ], [ -1374195.227821786422282, -1414425.844807162182406 ], [ -1436907.343965237028897, -1343842.742533694021404 ], [ -1494406.145209257258102, -1311694.013186219148338 ], [ -1516456.338212211849168, -1287870.213510377798229 ], [ -1537032.097337451763451, -1305243.924730422906578 ], [ -1537005.622047975892201, -1330394.528023083228618 ], [ -1566279.650258394423872, -1333498.622870076447725 ], [ -1637344.278607734944671, -1287196.51928661391139 ], [ -1672071.877401334233582, -1296396.711878370959312 ], [ -1773156.472032187273726, -786624.73545409727376 ], [ -1821823.413906718371436, -767227.453025406575762 ], [ -1846930.862425286322832, -781259.619150424725376 ], [ -1896040.022911892738193, -776843.003791357506998 ], [ -1941600.804847388062626, -760830.810843462240882 ], [ -1973757.749354316852987, -770434.755924033583142 ], [ -1993808.86474751518108, -748175.13133642275352 ], [ -2038446.255956104723737, -746917.331486319075339 ], [ -2047317.101660623215139, -729384.523899334133603 ], [ -2079288.360948337009177, -720747.005686354706995 ], [ -2103211.029898687731475, -744325.831964795594104 ], [ -2133577.449540466535836, -744182.789013303467073 ], [ -2203035.306287620682269, -789865.651253518764861 ], [ -2211947.626733780372888, -817442.477576118311845 ], [ -2235070.619399643037468, -834910.851782009121962 ], [ -2275099.567461958155036, -831301.827082909527235 ], [ -2288249.700023795012385, -859125.380481944070198 ], [ -2242391.681214813608676, -910097.329627293162048 ], [ -2238675.149850501213223, -936274.04279926919844 ], [ -2216421.446491246111691, -945581.342230958980508 ], [ -2195984.623982891906053, -989264.150841974769719 ], [ -2205466.148714841343462, -1001595.120677066617645 ], [ -2247016.800760813988745, -994003.430950596579351 ], [ -2240968.593368398956954, -966874.887557096430101 ], [ -2281952.939779560081661, -968082.790605689166114 ], [ -2350767.09203625889495, -998019.611304117599502 ] ] ] ] } },
{ "type": "Feature", "properties": { "GEOID": "15", "STATEFP": "15", "state_name": "Hawaii", "state": "HI" }, "geometry": { "type": "MultiPolygon", "coordinates": [ [ [ [ -687432.064836430014111, -1410048.183780147694051 ], [ -668556.600901782047004, -1487716.145156664308161 ], [ -672412.368587742559612, -1528969.973752300953493 ], [ -642547.066961459349841, -1550331.02797146840021 ], [ -624814.405767120420933, -1550079.312052481109276 ], [ -607780.005299928714521, -1522220.272619880503044 ], [ -569880.784459580201656, -1499395.677648430457339 ], [ -553283.516365468152799, -1500246.828915692865849 ], [ -508785.166022430581506, -1472594.312934847781435 ], [ -542428.387177474913187, -1402964.906166970496997 ], [ -571610.253403198439628, -1376843.704997589113191 ], [ -669518.047535255434923, -1337575.613230688963085 ], [ -659083.303649960900657, -1375451.498670659959316 ], [ -687432.064836430014111, -1410048.183780147694051 ] ] ], [ [ [ -794047.743685014196672, -1218143.210989795159549 ], [ -786303.084932645317167, -1244387.377334618940949 ], [ -761445.597955460078083, -1249377.94107250450179 ], [ -754827.512978044338524, -1281179.764171794988215 ], [ -707381.741960051003844, -1276192.368467648513615 ], [ -696474.838502723257989, -1245924.448587979888543 ], [ -725238.102604481042363, -1225001.579008963657543 ], [ -762658.379901473876089, -1231639.145062576513737 ], [ -794047.743685014196672, -1218143.210989795159549 ] ] ], [ [ [ -883273.463946910342202, -1184466.816671872744337 ], [ -824847.352759749628603, -1206774.780910547589883 ], [ -803704.061711810412817, -1185816.312225248897448 ], [ -883273.463946910342202, -1184466.816671872744337 ] ] ], [ [ [ -1020320.293106178171001, -1117751.847789166029543 ], [ -1044130.844165652175434, -1118950.248958847485483 ], [ -1017033.526224200846627, -1165389.770809659035876 ], [ -953858.834954518824816, -1171204.284382991492748 ], [ -957279.84543162281625, -1138999.687530410243198 ], [ -995668.527489865780808, -1097095.043420357629657 ], [ -1020320.293106178171001, -1117751.847789166029543 ] ] ], [ [ [ -1272940.717631307430565, -1031712.181283682351932 ], [ -1274644.474598413100466, -1051405.356886627152562 ], [ -1226382.21995366178453, -1069869.686887098709121 ], [ -1202264.51353729958646, -1028219.469715735409409 ], [ -1219189.774804465938359, -1010021.471499159582891 ], [ -1247085.363677612040192, -1011249.316403005039319 ], [ -1272940.717631307430565, -1031712.181283682351932 ] ] ] ] } }
]
}
